{
  "type": "FeatureCollection",
  "features": [
    {
      "type": "Feature",
      "properties": {
        "norad_id": 39773,
        "name": "EUTELSAT 3B",
        "group": "eutelsat",
        "lat": -0.07786852891913233,
        "lon": -90.22657677997651,
        "alt_km": 35771.56494757534,
        "timestamp": "2025-12-26T11:25:44.890211+00:00",
        "meta_object_name": "EUTELSAT 3B",
        "meta_object_id": "2014-030A",
        "meta_epoch": "2025-12-25T22:09:38.747232",
        "meta_mean_motion": 1.00270275,
        "meta_eccentricity": 0.0004276,
        "meta_inclination": 0.0601,
        "meta_ra_of_asc_node": 351.2904,
        "meta_arg_of_pericenter": 244.007,
        "meta_mean_anomaly": 194.888,
        "meta_ephemeris_type": 0,
        "meta_classification_type": "U",
        "meta_norad_cat_id": 39773,
        "meta_element_set_no": 999,
        "meta_rev_at_epoch": 4233,
        "meta_bstar": 0,
        "meta_mean_motion_dot": 4.1e-07,
        "meta_mean_motion_ddot": 0,
        "tle_line1": "1 39773U 14030A   25359.92336513  .00000041  00000+0  00000+0 0  9996",
        "tle_line2": "2 39773   0.0601 351.2904 0004276 244.0070 194.8880  1.00270275 42332"
      },
      "geometry": {
        "type": "Point",
        "coordinates": [
          -90.22657677997651,
          -0.07786852891913233
        ]
      }
    },
    {
      "type": "Feature",
      "properties": {
        "norad_id": 40425,
        "name": "EUTELSAT 115 WEST B",
        "group": "eutelsat",
        "lat": -0.003017740555119929,
        "lon": 151.74586686148822,
        "alt_km": 35785.61835140851,
        "timestamp": "2025-12-26T11:25:44.890221+00:00",
        "meta_object_name": "EUTELSAT 115 WEST B",
        "meta_object_id": "2015-010B",
        "meta_epoch": "2025-12-26T04:39:38.472192",
        "meta_mean_motion": 1.00273716,
        "meta_eccentricity": 7.9e-06,
        "meta_inclination": 0.0096,
        "meta_ra_of_asc_node": 155.377,
        "meta_arg_of_pericenter": 251.4809,
        "meta_mean_anomaly": 3.0875,
        "meta_ephemeris_type": 0,
        "meta_classification_type": "U",
        "meta_norad_cat_id": 40425,
        "meta_element_set_no": 999,
        "meta_rev_at_epoch": 3965,
        "meta_bstar": 0,
        "meta_mean_motion_dot": -3e-08,
        "meta_mean_motion_ddot": 0,
        "tle_line1": "1 40425U 15010B   25360.19419528 -.00000003  00000+0  00000+0 0  9999",
        "tle_line2": "2 40425   0.0096 155.3770 0000079 251.4809   3.0875  1.00273716 39658"
      },
      "geometry": {
        "type": "Point",
        "coordinates": [
          151.74586686148822,
          -0.003017740555119929
        ]
      }
    },
    {
      "type": "Feature",
      "properties": {
        "norad_id": 40875,
        "name": "EUTELSAT 8 WEST B",
        "group": "eutelsat",
        "lat": -0.07796970119671062,
        "lon": -101.36642205960764,
        "alt_km": 35769.131024675735,
        "timestamp": "2025-12-26T11:25:44.890232+00:00",
        "meta_object_name": "EUTELSAT 8 WEST B",
        "meta_object_id": "2015-039B",
        "meta_epoch": "2025-12-26T00:08:38.731776",
        "meta_mean_motion": 1.00271363,
        "meta_eccentricity": 0.0004213,
        "meta_inclination": 0.0647,
        "meta_ra_of_asc_node": 10.9589,
        "meta_arg_of_pericenter": 264.4532,
        "meta_mean_anomaly": 173.5041,
        "meta_ephemeris_type": 0,
        "meta_classification_type": "U",
        "meta_norad_cat_id": 40875,
        "meta_element_set_no": 999,
        "meta_rev_at_epoch": 3792,
        "meta_bstar": 0,
        "meta_mean_motion_dot": -4.4e-07,
        "meta_mean_motion_ddot": 0,
        "tle_line1": "1 40875U 15039B   25360.00600384 -.00000044  00000+0  00000+0 0  9996",
        "tle_line2": "2 40875   0.0647  10.9589 0004213 264.4532 173.5041  1.00271363 37926"
      },
      "geometry": {
        "type": "Point",
        "coordinates": [
          -101.36642205960764,
          -0.07796970119671062
        ]
      }
    },
    {
      "type": "Feature",
      "properties": {
        "norad_id": 41310,
        "name": "EUTELSAT 9B",
        "group": "eutelsat",
        "lat": -0.037304901630371416,
        "lon": -84.35538593679667,
        "alt_km": 35766.74735664677,
        "timestamp": "2025-12-26T11:25:44.890242+00:00",
        "meta_object_name": "EUTELSAT 9B",
        "meta_object_id": "2016-005A",
        "meta_epoch": "2025-12-25T22:01:38.543808",
        "meta_mean_motion": 1.0026988,
        "meta_eccentricity": 0.0004684,
        "meta_inclination": 0.0266,
        "meta_ra_of_asc_node": 46.8521,
        "meta_arg_of_pericenter": 228.3219,
        "meta_mean_anomaly": 158.904,
        "meta_ephemeris_type": 0,
        "meta_classification_type": "U",
        "meta_norad_cat_id": 41310,
        "meta_element_set_no": 999,
        "meta_rev_at_epoch": 3637,
        "meta_bstar": 0,
        "meta_mean_motion_dot": 8.3e-07,
        "meta_mean_motion_ddot": 0,
        "tle_line1": "1 41310U 16005A   25359.91780722  .00000083  00000+0  00000+0 0  9990",
        "tle_line2": "2 41310   0.0266  46.8521 0004684 228.3219 158.9040  1.00269880 36370"
      },
      "geometry": {
        "type": "Point",
        "coordinates": [
          -84.35538593679667,
          -0.037304901630371416
        ]
      }
    },
    {
      "type": "Feature",
      "properties": {
        "norad_id": 41382,
        "name": "EUTELSAT 65 WEST A",
        "group": "eutelsat",
        "lat": -0.032069934986508127,
        "lon": -158.55573953031913,
        "alt_km": 35783.9589469549,
        "timestamp": "2025-12-26T11:25:44.890253+00:00",
        "meta_object_name": "EUTELSAT 65 WEST A",
        "meta_object_id": "2016-014A",
        "meta_epoch": "2025-12-26T00:48:38.495232",
        "meta_mean_motion": 1.00271394,
        "meta_eccentricity": 0.0002343,
        "meta_inclination": 0.0476,
        "meta_ra_of_asc_node": 346.6091,
        "meta_arg_of_pericenter": 291.5332,
        "meta_mean_anomaly": 123.6234,
        "meta_ephemeris_type": 0,
        "meta_classification_type": "U",
        "meta_norad_cat_id": 41382,
        "meta_element_set_no": 999,
        "meta_rev_at_epoch": 3579,
        "meta_bstar": 0,
        "meta_mean_motion_dot": -2.55e-06,
        "meta_mean_motion_ddot": 0,
        "tle_line1": "1 41382U 16014A   25360.03377888 -.00000255  00000+0  00000+0 0  9991",
        "tle_line2": "2 41382   0.0476 346.6091 0002343 291.5332 123.6234  1.00271394 35795"
      },
      "geometry": {
        "type": "Point",
        "coordinates": [
          -158.55573953031913,
          -0.032069934986508127
        ]
      }
    },
    {
      "type": "Feature",
      "properties": {
        "norad_id": 41589,
        "name": "EUTELSAT 117 WEST B",
        "group": "eutelsat",
        "lat": -0.002312788321157998,
        "lon": 149.68007286400083,
        "alt_km": 35786.46725022833,
        "timestamp": "2025-12-26T11:25:44.890263+00:00",
        "meta_object_name": "EUTELSAT 117 WEST B",
        "meta_object_id": "2016-038B",
        "meta_epoch": "2025-12-24T09:59:01.014144",
        "meta_mean_motion": 1.00277873,
        "meta_eccentricity": 6.384e-05,
        "meta_inclination": 0.0094,
        "meta_ra_of_asc_node": 154.0765,
        "meta_arg_of_pericenter": 139.5473,
        "meta_mean_anomaly": 192.3072,
        "meta_ephemeris_type": 0,
        "meta_classification_type": "U",
        "meta_norad_cat_id": 41589,
        "meta_element_set_no": 999,
        "meta_rev_at_epoch": 3491,
        "meta_bstar": 0,
        "meta_mean_motion_dot": 9e-08,
        "meta_mean_motion_ddot": 0,
        "tle_line1": "1 41589U 16038B   25358.41598396  .00000009  00000+0  00000+0 0  9990",
        "tle_line2": "2 41589   0.0094 154.0765 0000638 139.5473 192.3072  1.00277873 34915"
      },
      "geometry": {
        "type": "Point",
        "coordinates": [
          149.68007286400083,
          -0.002312788321157998
        ]
      }
    },
    {
      "type": "Feature",
      "properties": {
        "norad_id": 42741,
        "name": "EUTELSAT 172B",
        "group": "eutelsat",
        "lat": -0.003989270150944468,
        "lon": 78.67034483146388,
        "alt_km": 35785.52819076717,
        "timestamp": "2025-12-26T11:25:44.890274+00:00",
        "meta_object_name": "EUTELSAT 172B",
        "meta_object_id": "2017-029B",
        "meta_epoch": "2025-12-25T20:43:50.636064",
        "meta_mean_motion": 1.00277797,
        "meta_eccentricity": 3.2e-05,
        "meta_inclination": 0.0359,
        "meta_ra_of_asc_node": 152.4382,
        "meta_arg_of_pericenter": 137.6622,
        "meta_mean_anomaly": 287.4819,
        "meta_ephemeris_type": 0,
        "meta_classification_type": "U",
        "meta_norad_cat_id": 42741,
        "meta_element_set_no": 999,
        "meta_rev_at_epoch": 3199,
        "meta_bstar": 0,
        "meta_mean_motion_dot": 1.7e-07,
        "meta_mean_motion_ddot": 0,
        "tle_line1": "1 42741U 17029B   25359.86378051  .00000017  00000+0  00000+0 0  9995",
        "tle_line2": "2 42741   0.0359 152.4382 0000320 137.6622 287.4819  1.00277797 31995"
      },
      "geometry": {
        "type": "Point",
        "coordinates": [
          78.67034483146388,
          -0.003989270150944468
        ]
      }
    }
  ]
}